NORAD_CAT_ID,OBJECT_NAME,OBJECT_TYPE,EPOCH,MEAN_MOTION,ECCENTRICITY,INCLINATION,RA_OF_ASC_NODE,ARG_OF_PERICENTER,MEAN_ANOMALY,BSTAR,MEAN_MOTION_DOT,MEAN_MOTION_DDOT,TLE_LINE0,TLE_LINE1,TLE_LINE2,SEMIMAJOR_AXIS,PERIOD,APOGEE,PERIGEE,DECAYED
53247.0,STARLINK-4061,PAYLOAD,2022-09-18 22:00:00,15.11774308,0.0001524,53.2174,130.3881,60.2368,208.7262,-0.067138,-0.01072807,0.0,0 STARLINK-4061,1 53247U 22086F   22261.91667824 -.01072807  00000-0 -67138-1 0  9998,2 53247  53.2174 130.3881 0001524  60.2368 208.7262 15.11774308  9414,6908.926,95.252,531.844,529.738,0.0
53247.0,STARLINK-4061,PAYLOAD,2022-09-19 14:00:01,15.10256793,0.0001384,53.2175,127.3793,73.1618,224.2112,-0.070332,-0.0107697,0.0,0 STARLINK-4061,1 53247U 22086F   22262.58334491 -.01076970  00000-0 -70332-1 0  9998,2 53247  53.2175 127.3793 0001384  73.1618 224.2112 15.10256793  1307,6913.553000000001,95.348,536.375,534.461,0.0
53247.0,STARLINK-4061,PAYLOAD,2022-09-19 22:00:00,15.09369738,0.0001730999999999,53.2175,125.8811,62.1562,248.0685,-0.039685,-0.00597517,0.0,0 STARLINK-4061,1 53247U 22086F   22262.91667824 -.00597517  00000-0 -39685-1 0  9994,2 53247  53.2175 125.8811 0001731  62.1562 248.0685 15.09369738  1304,6916.262,95.404,539.3240000000002,536.929,0.0
53247.0,STARLINK-4061,PAYLOAD,2022-09-20 06:00:00,15.08841214,0.0001473,53.2173,124.3827,80.6952,241.5178,-0.00061281,-0.00010028,0.0,0 STARLINK-4061,1 53247U 22086F   22263.25001157 -.00010028  00000-0 -61281-3 0  9999,2 53247  53.2173 124.3827 0001473  80.6952 241.5178 15.08841214  9625,6917.877,95.437,540.761,538.7230000000002,0.0
53247.0,STARLINK-4061,PAYLOAD,2022-09-20 14:00:01,15.08850233,0.0001278,53.218,122.8907,77.1568,256.651,-0.00096607,-0.00015634,0.0,0 STARLINK-4061,1 53247U 22086F   22263.58334491 -.00015634  00000-0 -96607-3 0  9993,2 53247  53.2180 122.8907 0001278  77.1568 256.6510 15.08850233  1307,6917.849,95.437,540.5980000000002,538.83,0.0
53247.0,STARLINK-4061,PAYLOAD,2022-09-20 22:00:01,15.08849103,0.0001403,53.2181,121.3999,67.7813,277.707,-0.00050738,-8.356e-05,0.0,0 STARLINK-4061,1 53247U 22086F   22263.91668981 -.00008356  00000-0 -50738-3 0  9992,2 53247  53.2181 121.3999 0001403  67.7813 277.7070 15.08849103  1300,6917.853,95.437,540.688,538.747,0.0
53247.0,STARLINK-4061,PAYLOAD,2022-09-21 14:00:01,15.08796445,0.0001446,53.2179,118.4057,78.1838,290.4318,1.811e-05,0.0,0.0,0 STARLINK-4061,1 53247U 22086F   22264.58334491  .00000000  00000-0  18110-4 0  9997,2 53247  53.2179 118.4057 0001446  78.1838 290.4318 15.08796445  9821,6918.014,95.44,540.879,538.878,0.0
53247.0,STARLINK-4061,PAYLOAD,2022-09-21 22:00:00,15.08797812,0.0001546,53.2178,116.9113,69.1036,311.0529,0.0011448,0.00017957,0.0,0 STARLINK-4061,1 53247U 22086F   22264.91667824  .00017957  00000-0  11448-2 0  9997,2 53247  53.2178 116.9113 0001546  69.1036 311.0529 15.08797812  1305,6918.009,95.44,540.944,538.805,0.0
53247.0,STARLINK-4061,PAYLOAD,2022-09-22 14:00:01,15.08815203,0.0001506999999999,53.2177,113.9169,77.0625,326.2109,0.0015260999999999,0.00024067,0.0,0 STARLINK-4061,1 53247U 22086F   22265.58334491  .00024067  00000-0  15261-2 0  9999,2 53247  53.2177 113.9169 0001507  77.0625 326.2109 15.08815203  1308,6917.956,95.439,540.864,538.779,0.0
53247.0,STARLINK-4061,PAYLOAD,2022-09-22 22:00:00,15.08818589,0.0001617,53.2177,112.4224,68.6301,346.2208,0.00062272,9.631e-05,0.0,0 STARLINK-4061,1 53247U 22086F   22265.91667824  .00009631  00000-0  62272-3 0  9990,2 53247  53.2177 112.4224 0001617  68.6301 346.2208 15.08818589  1305,6917.946,95.439,540.929,538.692,0.0
53247.0,STARLINK-4061,PAYLOAD,2022-09-23 06:00:00,15.08844539,0.0001536,53.2177,110.925,69.8828,356.5388,-0.0017622,-0.00028227,0.0,0 STARLINK-4061,1 53247U 22086F   22266.25001157 -.00028227  00000-0 -17622-2 0  9991,2 53247  53.2177 110.9250 0001536  69.8828 356.5388 15.08844539 10075,6917.8669999999975,95.437,540.794,538.669,0.0
53247.0,STARLINK-4061,PAYLOAD,2022-09-23 14:00:01,15.0883688,0.0001561999999999,53.2178,109.4278,75.7379,2.2724,0.0011821,0.00018574,0.0,0 STARLINK-4061,1 53247U 22086F   22266.58334491  .00018574  00000-0  11821-2 0  9994,2 53247  53.2178 109.4278 0001562  75.7379   2.2724 15.08836880  1300,6917.89,95.438,540.835,538.674,0.0
53247.0,STARLINK-4061,PAYLOAD,2022-09-23 22:00:00,15.08834699,0.0001661,53.2179,107.9332,67.6251,21.9874,0.0011843,0.00018608,0.0,0 STARLINK-4061,1 53247U 22086F   22266.91667824  .00018608  00000-0  11843-2 0  9992,2 53247  53.2179 107.9332 0001661  67.6251  21.9874 15.08834699  1304,6917.897,95.438,540.911,538.613,0.0
53247.0,STARLINK-4061,PAYLOAD,2022-09-24 14:00:01,15.0886343,0.0001595999999999,53.2181,104.9385,75.1727,37.712,0.00079775,0.00012439,0.0,0 STARLINK-4061,1 53247U 22086F   22267.58335648  .00012439  00000-0  79775-3 0  9997,2 53247  53.2181 104.9385 0001596  75.1727  37.7120 15.08863430  1305,6917.809,95.436,540.778,538.57,0.0
53247.0,STARLINK-4061,PAYLOAD,2022-09-24 22:00:00,15.08865861,0.0001641,53.2181,103.4439,66.2675,58.1842,-0.00033832,-5.672e-05,0.0,0 STARLINK-4061,1 53247U 22086F   22267.91667824 -.00005672  00000-0 -33832-3 0  9995,2 53247  53.2181 103.4439 0001641  66.2675  58.1842 15.08865861  1301,6917.801,95.436,540.802,538.531,0.0
53247.0,STARLINK-4061,PAYLOAD,2022-09-25 06:00:00,15.08874513,0.0001437,53.2181,101.9461,69.0579,67.0196,-0.0044504,-0.00070489,0.0,0 STARLINK-4061,1 53247U 22086F   22268.25001157 -.00070489  00000-0 -44504-2 0  9999,2 53247  53.2181 101.9461 0001437  69.0579  67.0196 15.08874513 10378,6917.775,95.435,540.634,538.646,0.0
53247.0,STARLINK-4061,PAYLOAD,2022-09-25 14:00:01,15.08833527,0.0001365999999999,53.2184,100.4493,72.9273,74.7543,0.00041159,6.267e-05,0.0,0 STARLINK-4061,1 53247U 22086F   22268.58334491  .00006267  00000-0  41159-3 0  9990,2 53247  53.2184 100.4493 0001366  72.9273  74.7543 15.08833527  1309,6917.9,95.438,540.71,538.82,0.0
53247.0,STARLINK-4061,PAYLOAD,2022-09-25 22:00:01,15.08816825,0.0001469,53.2181,98.9536,62.731,96.6058,0.0021154,0.00033518,0.0,0 STARLINK-4061,1 53247U 22086F   22268.91668981  .00033518  00000-0  21154-2 0  9992,2 53247  53.2181  98.9536 0001469  62.7310  96.6058 15.08816825  1304,6917.951,95.439,540.832,538.8,0.0
53247.0,STARLINK-4061,PAYLOAD,2022-09-26 12:00:00,15.0883223,0.0001338,53.2183,96.3338,74.3519,15.1928,0.0019551,0.00030958,0.0,0 STARLINK-4061,1 53247U 22086F   22269.50001157  .00030958  00000-0  19551-2 0  9997,2 53247  53.2183  96.3338 0001338  74.3519  15.1928 15.08832230 10561,6917.904,95.438,540.695,538.844,0.0
53247.0,STARLINK-4061,PAYLOAD,2022-09-26 14:00:01,15.08850675,0.0001349,53.2184,95.9602,73.6134,108.8235,-0.00024421,-4.174e-05,0.0,0 STARLINK-4061,1 53247U 22086F   22269.58334491 -.00004174  00000-0 -24421-3 0  9991,2 53247  53.2184  95.9602 0001349  73.6134 108.8235 15.08850675  1304,6917.848000000001,95.437,540.646,538.78,0.0
53247.0,STARLINK-4061,PAYLOAD,2022-09-26 22:00:00,15.08828984,0.0001453,53.2182,94.4653,63.5209,130.5278,0.0022232,0.00035261,0.0,0 STARLINK-4061,1 53247U 22086F   22269.91667824  .00035261  00000-0  22232-2 0  9993,2 53247  53.2182  94.4653 0001453  63.5209 130.5278 15.08828984  1306,6917.9140000000025,95.438,540.784,538.774,0.0
53247.0,STARLINK-4061,PAYLOAD,2022-09-27 06:00:00,15.088556400000002,0.0001375999999999,53.2181,92.9673,70.9268,134.7216,-0.0030587,-0.00048659,0.0,0 STARLINK-4061,1 53247U 22086F   22270.25001157 -.00048659  00000-0 -30587-2 0  9992,2 53247  53.2181  92.9673 0001376  70.9268 134.7216 15.08855640 10678,6917.833000000001,95.437,540.649,538.746,0.0
53247.0,STARLINK-4061,PAYLOAD,2022-09-27 14:00:01,15.08843161,0.000145,53.2182,91.4711,75.5971,141.6415,-0.0004182,-6.938e-05,0.0,0 STARLINK-4061,1 53247U 22086F   22270.58334491 -.00006938  00000-0 -41820-3 0  9995,2 53247  53.2182  91.4711 0001450  75.5971 141.6415 15.08843161  1304,6917.871,95.437,540.739,538.7330000000002,0.0
53247.0,STARLINK-4061,PAYLOAD,2022-09-27 22:00:01,15.08820254,0.0001523,53.2181,89.9761,65.5691,163.3365,0.0031341,0.00049918,0.0,0 STARLINK-4061,1 53247U 22086F   22270.91668981  .00049918  00000-0  31341-2 0  9995,2 53247  53.2181  89.9761 0001523  65.5691 163.3365 15.08820254  1302,6917.941,95.439,540.859,538.752,0.0
53247.0,STARLINK-4061,PAYLOAD,2022-09-28 14:00:01,15.08883862,0.000139,53.218,86.9822,75.1303,176.9045,-0.0039465,-0.00062625,0.0,0 STARLINK-4061,1 53247U 22086F   22271.58334491 -.00062625  00000-0 -39465-2 0  9992,2 53247  53.2180  86.9822 0001390  75.1303 176.9045 15.08883862 10876,6917.746,95.435,540.573,538.65,0.0
53247.0,STARLINK-4061,PAYLOAD,2022-09-28 22:00:00,15.08817817,0.0001456,53.218,85.4872,64.5821,199.0682,0.00035909,5.428e-05,0.0,0 STARLINK-4061,1 53247U 22086F   22271.91667824  .00005428  00000-0  35909-3 0  9994,2 53247  53.2180  85.4872 0001456  64.5821 199.0682 15.08817817  1303,6917.948,95.439,540.82,538.806,0.0
53247.0,STARLINK-4061,PAYLOAD,2022-09-29 06:00:00,15.08827426,0.0001296999999999,53.2179,83.9863,70.3259,204.908,0.00061866,9.568e-05,0.0,0 STARLINK-4061,1 53247U 22086F   22272.25001157  .00009568  00000-0  61866-3 0  9993,2 53247  53.2179  83.9863 0001297  70.3259 204.9080 15.08827426 10986,6917.919,95.438,540.681,538.887,0.0
53247.0,STARLINK-4061,PAYLOAD,2022-09-29 14:00:01,15.08855573,0.0001369,53.2182,82.4932,72.3857,214.4284,-0.00098332,-0.0001591,0.0,0 STARLINK-4061,1 53247U 22086F   22272.58334491 -.00015910  00000-0 -98332-3 0  9997,2 53247  53.2182  82.4932 0001369  72.3857 214.4284 15.08855573  1309,6917.833000000001,95.437,540.645,538.751,0.0
53247.0,STARLINK-4061,PAYLOAD,2022-09-29 22:00:00,15.088369,0.0001475,53.2182,80.9983,62.78,235.6458,0.0013284,0.00020915,0.0,0 STARLINK-4061,1 53247U 22086F   22272.91667824  .00020915  00000-0  13284-2 0  9994,2 53247  53.2182  80.9983 0001475  62.7800 235.6458 15.08836900  1308,6917.89,95.438,540.775,538.734,0.0
